STARLINK-32659          
1 62427U 24249U   26196.34706011  .00013272  00000+0  49093-3 0  9990
2 62427  43.0025 313.4425 0001884 269.9723  90.0913 15.27580754 87335
STARLINK-32614          
1 62428U 24249V   26196.40007028  .00009874  00000+0  36761-3 0  9991
2 62428  43.0051 320.7613 0001674 274.6971  85.3690 15.27602259 87255
STARLINK-32418          
1 62429U 24249W   26196.38546247  .00009152  00000+0  34169-3 0  9999
2 62429  43.0023 312.8585 0001367 204.4979 155.5808 15.27577780 87344
STARLINK-32702          
1 62432U 24251A   26196.93487267  .00004326  00000+0  15817-3 0  9990
2 62432  53.1593  96.7543 0001572  68.6842 291.4326 15.30188857 87624
STARLINK-32712          
1 62433U 24251B   26196.94817647  .00012662  00000+0  43885-3 0  9999
2 62433  53.1582  99.6752 0001035  85.0039 275.1080 15.30203605 87582
STARLINK-32674          
1 62434U 24251C   26196.97127212  .00007808  00000+0  24198-3 0  9997
2 62434  53.1592  98.4126 0001308  96.5357 263.5794 15.34398813 87605
STARLINK-32711          
1 62435U 24251D   26196.94500983  .00006913  00000+0  24526-3 0  9996
2 62435  53.1589  99.6629 0002109 130.5948 229.5237 15.30207431 87580
STARLINK-32697          
1 62436U 24251E   26196.93234535  .00012324  00000+0  42715-3 0  9996
2 62436  53.1595  99.5851 0001017 115.0751 245.0355 15.30227870 87584
STARLINK-32693          
1 62437U 24251F   26196.92448716  .00010489  00000+0  32109-3 0  9990
2 62437  53.1610  96.6234 0001394  88.9188 271.1975 15.34403777 87625
STARLINK-32721          
1 62438U 24251G   26196.92086536  .00007571  00000+0  23500-3 0  9992
2 62438  53.1604  98.8007 0001448  97.1671 262.9497 15.34399237 87532
STARLINK-32709          
1 62439U 24251H   26196.92507361  .00009526  00000+0  29271-3 0  9990
2 62439  53.1602  98.8324 0001459  73.8466 286.2698 15.34401816 87593
STARLINK-32689          
1 62440U 24251J   26196.91244862  .00009054  00000+0  27877-3 0  9991
2 62440  53.1605  98.7498 0001359 101.1829 258.9327 15.34402205 87594
STARLINK-32724          
1 62441U 24251K   26196.97337679  .00008824  00000+0  27197-3 0  9996
2 62441  53.1594  98.4226 0001499  95.2239 264.8934 15.34402368 87445
STARLINK-32291          
1 62442U 24251L   26196.93551135  .00009784  00000+0  34215-3 0  9993
2 62442  53.1602  99.6008 0001260  67.0832 293.0302 15.30187257 87276
STARLINK-32736          
1 62443U 24251M   26196.94291528  .00005501  00000+0  19785-3 0  9990
2 62443  53.1589  99.6482 0001345  98.6826 261.4327 15.30175959 87423
STARLINK-32737          
1 62444U 24251N   26196.92870300  .00007208  00000+0  22426-3 0  9992
2 62444  53.1609  96.7209 0001358  94.6456 265.4701 15.34400171 87624
STARLINK-32683          
1 62445U 24251P   26196.97547985  .00009428  00000+0  28989-3 0  9994
2 62445  53.1606  98.4272 0001451 103.1933 256.9232 15.34393347 87609
STARLINK-32726          
1 62446U 24251Q   26196.13291692  .00017492  00000+0  52726-3 0  9990
2 62446  53.1605 102.4169 0001438  80.5915 279.5250 15.34421140 87168
STARLINK-32719          
1 62448U 24251S   26196.88937052  .00008677  00000+0  26781-3 0  9998
2 62448  53.1593  99.1709 0001228  81.8610 278.2532 15.34381219 87410
STARLINK-32723          
1 62449U 24251T   26196.90192839  .00008792  00000+0  27102-3 0  9994
2 62449  53.1595  98.6839 0002024  87.0472 273.0762 15.34404411 87430
STARLINK-32722          
1 62450U 24251U   26196.92717395  .00021226  00000+0  63725-3 0  9996
2 62450  53.1604  98.8404 0001270  73.4549 286.6593 15.34415265 87227
STARLINK-32720          
1 62451U 24251V   26196.91665551  .00010026  00000+0  30743-3 0  9992
2 62451  53.1600  98.7720 0002127 101.0631 259.0611 15.34404447 87221
STARLINK-32656          
1 62452U 24251W   26196.91877528  .00024023  00000+0  71942-3 0  9990
2 62452  53.1608  98.7827 0001472 107.1835 252.9329 15.34418586 87433
STARLINK-32690          
1 62453U 24251X   26196.92927910  .00013252  00000+0  40278-3 0  9993
2 62453  53.1612  98.8553 0001364  94.5932 265.5227 15.34390884 87216
STARLINK-11518 [DTC]    
1 62462U 24254A   26196.34419470  .00103159  00000+0  79790-3 0  9996
2 62462  42.9997 173.9129 0001973 243.1497 116.9169 15.70827087 89481
STARLINK-11455 [DTC]    
1 62463U 24254B   26196.92174839  .00176134  00000+0  13412-2 0  9999
2 62463  42.9998 170.5014 0002024 203.5140 156.5636 15.70946926 89564
STARLINK-11178 [DTC]    
1 62465U 24254D   26196.96940367  .00158760  00000+0  12140-2 0  9994
2 62465  43.0003 169.9931 0001562 263.0110  97.0580 15.70903175 89419
STARLINK-11506 [DTC]    
1 62466U 24254E   26196.29110132  .00139169  00000+0  10694-2 0  9994
2 62466  43.0026 173.4824 0001819 272.7118  87.3542 15.70852850 89318
STARLINK-11486 [DTC]    
1 62467U 24254F   26196.97471574  .00110374  00000+0  85012-3 0  9994
2 62467  43.0015 170.0326 0002156 236.1322 123.9341 15.70899518 89577
STARLINK-11511 [DTC]    
1 62468U 24254G   26196.63556257  .00136241  00000+0  10471-2 0  9997
2 62468  43.0029 171.7794 0002127 263.3110  96.7515 15.70858123 89527
