OBJECT_NAME,OBJECT_ID,EPOCH,MEAN_MOTION,ECCENTRICITY,INCLINATION,RA_OF_ASC_NODE,ARG_OF_PERICENTER,MEAN_ANOMALY,EPHEMERIS_TYPE,CLASSIFICATION_TYPE,NORAD_CAT_ID,ELEMENT_SET_NO,REV_AT_EPOCH,BSTAR,MEAN_MOTION_DOT,MEAN_MOTION_DDOT
STARLINK-32659,2024-249U,2026-07-15T08:19:45.993504,15.27580754,.00018848,43.0025,313.4425,269.9723,90.0913,0,U,62427,999,8733,.49093308E-3,.13272E-3,0
STARLINK-32614,2024-249V,2026-07-15T09:36:06.072192,15.27602259,.00016745,43.0051,320.7613,274.6971,85.3690,0,U,62428,999,8725,.36761257E-3,.9874E-4,0
STARLINK-32418,2024-249W,2026-07-15T09:15:03.957408,15.27577780,.00013678,43.0023,312.8585,204.4979,155.5808,0,U,62429,999,8734,.34169165E-3,.9152E-4,0
STARLINK-32702,2024-251A,2026-07-15T22:26:12.998688,15.30188857,.0001572,53.1593,96.7543,68.6842,291.4326,0,U,62432,999,8762,.15817308E-3,.4326E-4,0
STARLINK-32712,2024-251B,2026-07-15T22:45:22.447008,15.30203605,.00010359,53.1582,99.6752,85.0039,275.1080,0,U,62433,999,8758,.4388467E-3,.12662E-3,0
STARLINK-32674,2024-251C,2026-07-15T23:18:37.911168,15.34398813,.00013084,53.1592,98.4126,96.5357,263.5794,0,U,62434,999,8760,.241976E-3,.7808E-4,0
STARLINK-32711,2024-251D,2026-07-15T22:40:48.849312,15.30207431,.00021094,53.1589,99.6629,130.5948,229.5237,0,U,62435,999,8758,.24526426E-3,.6913E-4,0
STARLINK-32697,2024-251E,2026-07-15T22:22:34.638240,15.30227870,.00010178,53.1595,99.5851,115.0751,245.0355,0,U,62436,999,8758,.42715304E-3,.12324E-3,0
STARLINK-32693,2024-251F,2026-07-15T22:11:15.690624,15.34403777,.00013947,53.1610,96.6234,88.9188,271.1975,0,U,62437,999,8762,.32109312E-3,.10489E-3,0
STARLINK-32721,2024-251G,2026-07-15T22:06:02.767104,15.34399237,.00014485,53.1604,98.8007,97.1671,262.9497,0,U,62438,999,8753,.23499797E-3,.7571E-4,0
STARLINK-32709,2024-251H,2026-07-15T22:12:06.359904,15.34401816,.00014591,53.1602,98.8324,73.8466,286.2698,0,U,62439,999,8759,.29270831E-3,.9526E-4,0
STARLINK-32689,2024-251J,2026-07-15T21:53:55.560768,15.34402205,.00013592,53.1605,98.7498,101.1829,258.9327,0,U,62440,999,8759,.27876798E-3,.9054E-4,0
STARLINK-32724,2024-251K,2026-07-15T23:21:39.754656,15.34402368,.00014995,53.1594,98.4226,95.2239,264.8934,0,U,62441,999,8744,.27197495E-3,.8824E-4,0
STARLINK-32291,2024-251L,2026-07-15T22:27:08.180640,15.30187257,.00012604,53.1602,99.6008,67.0832,293.0302,0,U,62442,999,8727,.3421466E-3,.9784E-4,0
STARLINK-32736,2024-251M,2026-07-15T22:37:47.880192,15.30175959,.00013457,53.1589,99.6482,98.6826,261.4327,0,U,62443,999,8742,.1978531E-3,.5501E-4,0
STARLINK-32737,2024-251N,2026-07-15T22:17:19.939200,15.34400171,.0001358,53.1609,96.7209,94.6456,265.4701,0,U,62444,999,8762,.22426384E-3,.7208E-4,0
STARLINK-32683,2024-251P,2026-07-15T23:24:41.459040,15.34393347,.00014518,53.1606,98.4272,103.1933,256.9232,0,U,62445,999,8760,.28989109E-3,.9428E-4,0
STARLINK-32726,2024-251Q,2026-07-15T03:11:24.021888,15.34421140,.00014383,53.1605,102.4169,80.5915,279.5250,0,U,62446,999,8716,.52726123E-3,.17492E-3,0
STARLINK-32719,2024-251S,2026-07-15T21:20:41.612928,15.34381219,.00012289,53.1593,99.1709,81.8610,278.2532,0,U,62448,999,8741,.26780987E-3,.8677E-4,0
STARLINK-32723,2024-251T,2026-07-15T21:38:46.612896,15.34404411,.00020242,53.1595,98.6839,87.0472,273.0762,0,U,62449,999,8743,.27102168E-3,.8792E-4,0
STARLINK-32722,2024-251U,2026-07-15T22:15:07.829280,15.34415265,.000127,53.1604,98.8404,73.4549,286.6593,0,U,62450,999,8722,.6372486E-3,.21226E-3,0
STARLINK-32720,2024-251V,2026-07-15T21:59:59.036064,15.34404447,.00021278,53.1600,98.7720,101.0631,259.0611,0,U,62451,999,8722,.30743153E-3,.10026E-3,0
STARLINK-32656,2024-251W,2026-07-15T22:03:02.184192,15.34418586,.00014722,53.1608,98.7827,107.1835,252.9329,0,U,62452,999,8743,.71942199E-3,.24023E-3,0
STARLINK-32690,2024-251X,2026-07-15T22:18:09.714240,15.34390884,.00013646,53.1612,98.8553,94.5932,265.5227,0,U,62453,999,8721,.40277911E-3,.13252E-3,0
STARLINK-11518 [DTC],2024-254A,2026-07-15T08:15:38.422080,15.70827087,.00019734,42.9997,173.9129,243.1497,116.9169,0,U,62462,999,8948,.79790134E-3,.103159E-2,0
STARLINK-11455 [DTC],2024-254B,2026-07-15T22:07:19.060896,15.70946926,.00020242,42.9998,170.5014,203.5140,156.5636,0,U,62463,999,8956,.13412031E-2,.176134E-2,0
STARLINK-11178 [DTC],2024-254D,2026-07-15T23:15:56.477088,15.70903175,.00015623,43.0003,169.9931,263.0110,97.0580,0,U,62465,999,8941,.12140322E-2,.15876E-2,0
STARLINK-11506 [DTC],2024-254E,2026-07-15T06:59:11.154048,15.70852850,.00018198,43.0026,173.4824,272.7118,87.3542,0,U,62466,999,8931,.10694199E-2,.139169E-2,0
STARLINK-11486 [DTC],2024-254F,2026-07-15T23:23:35.439936,15.70899518,.00021564,43.0015,170.0326,236.1322,123.9341,0,U,62467,999,8957,.85012473E-3,.110374E-2,0
STARLINK-11511 [DTC],2024-254G,2026-07-15T15:15:12.606048,15.70858123,.00021274,43.0029,171.7794,263.3110,96.7515,0,U,62468,999,8952,.10471093E-2,.136241E-2,0
